{
  "type": "FeatureCollection",
  "features": [
    {
      "type": "Feature",
      "properties": {
        "norad_id": 32376,
        "name": "COSMO-SKYMED 2",
        "group": "resource",
        "lat": 39.71060944197508,
        "lon": 151.4485790599239,
        "alt_km": 618.6924509432592,
        "timestamp": "2025-12-02T13:52:16.932295+00:00",
        "meta_object_name": "COSMO-SKYMED 2",
        "meta_object_id": "2007-059A",
        "meta_epoch": "2025-12-02T07:12:35.430912",
        "meta_mean_motion": 14.82172787,
        "meta_eccentricity": 0.00014674,
        "meta_inclination": 97.8807,
        "meta_ra_of_asc_node": 157.7811,
        "meta_arg_of_pericenter": 84.7814,
        "meta_mean_anomaly": 275.3566,
        "meta_ephemeris_type": 0,
        "meta_classification_type": "U",
        "meta_norad_cat_id": 32376,
        "meta_element_set_no": 999,
        "meta_rev_at_epoch": 97283,
        "meta_bstar": 9.8754494e-05,
        "meta_mean_motion_dot": 7.34e-06,
        "meta_mean_motion_ddot": 0,
        "tle_line1": "1 32376U 07059A   25336.30041008  .00000734  00000+0  98754-4 0  9997",
        "tle_line2": "2 32376  97.8807 157.7811 0001467  84.7814 275.3566 14.82172787972832"
      },
      "geometry": {
        "type": "Point",
        "coordinates": [
          151.4485790599239,
          39.71060944197508
        ]
      }
    },
    {
      "type": "Feature",
      "properties": {
        "norad_id": 32382,
        "name": "RADARSAT-2",
        "group": "resource",
        "lat": 80.31033563468743,
        "lon": -136.53046536976012,
        "alt_km": 783.5917854845811,
        "timestamp": "2025-12-02T13:52:16.932305+00:00",
        "meta_object_name": "RADARSAT-2",
        "meta_object_id": "2007-061A",
        "meta_epoch": "2025-12-02T06:42:50.270400",
        "meta_mean_motion": 14.29983156,
        "meta_eccentricity": 0.00010825,
        "meta_inclination": 98.58,
        "meta_ra_of_asc_node": 341.0218,
        "meta_arg_of_pericenter": 90.2858,
        "meta_mean_anomaly": 269.8448,
        "meta_ephemeris_type": 0,
        "meta_classification_type": "U",
        "meta_norad_cat_id": 32382,
        "meta_element_set_no": 999,
        "meta_rev_at_epoch": 93781,
        "meta_bstar": 6.8660788e-05,
        "meta_mean_motion_dot": 1.33e-06,
        "meta_mean_motion_ddot": 0,
        "tle_line1": "1 32382U 07061A   25336.27974850  .00000133  00000+0  68661-4 0  9990",
        "tle_line2": "2 32382  98.5800 341.0218 0001082  90.2858 269.8448 14.29983156937819"
      },
      "geometry": {
        "type": "Point",
        "coordinates": [
          -136.53046536976012,
          80.31033563468743
        ]
      }
    },
    {
      "type": "Feature",
      "properties": {
        "norad_id": 32783,
        "name": "CARTOSAT-2A",
        "group": "resource",
        "lat": -61.08805885189849,
        "lon": 41.07829240307056,
        "alt_km": 641.2151113409545,
        "timestamp": "2025-12-02T13:52:16.932316+00:00",
        "meta_object_name": "CARTOSAT-2A",
        "meta_object_id": "2008-021A",
        "meta_epoch": "2025-12-02T07:39:22.019904",
        "meta_mean_motion": 14.78904895,
        "meta_eccentricity": 0.00125597,
        "meta_inclination": 97.7945,
        "meta_ra_of_asc_node": 26.4675,
        "meta_arg_of_pericenter": 37.1426,
        "meta_mean_anomaly": 323.0652,
        "meta_ephemeris_type": 0,
        "meta_classification_type": "U",
        "meta_norad_cat_id": 32783,
        "meta_element_set_no": 999,
        "meta_rev_at_epoch": 94970,
        "meta_bstar": 0.00017745039,
        "meta_mean_motion_dot": 1.259e-05,
        "meta_mean_motion_ddot": 0,
        "tle_line1": "1 32783U 08021A   25336.31900486  .00001259  00000+0  17745-3 0  9997",
        "tle_line2": "2 32783  97.7945  26.4675 0012559  37.1426 323.0652 14.78904895949706"
      },
      "geometry": {
        "type": "Point",
        "coordinates": [
          41.07829240307056,
          -61.08805885189849
        ]
      }
    },
    {
      "type": "Feature",
      "properties": {
        "norad_id": 33320,
        "name": "HUANJING 1A (HJ-1A)",
        "group": "resource",
        "lat": 0.851401696952962,
        "lon": -34.812813327442235,
        "alt_km": 615.5261340156103,
        "timestamp": "2025-12-02T13:52:16.932327+00:00",
        "meta_object_name": "HUANJING 1A (HJ-1A)",
        "meta_object_id": "2008-041A",
        "meta_epoch": "2025-12-02T07:23:29.992992",
        "meta_mean_motion": 14.83340591,
        "meta_eccentricity": 0.00206811,
        "meta_inclination": 97.6535,
        "meta_ra_of_asc_node": 325.043,
        "meta_arg_of_pericenter": 66.6475,
        "meta_mean_anomaly": 293.6913,
        "meta_ephemeris_type": 0,
        "meta_classification_type": "U",
        "meta_norad_cat_id": 33320,
        "meta_element_set_no": 999,
        "meta_rev_at_epoch": 92921,
        "meta_bstar": 0.00024703614,
        "meta_mean_motion_dot": 1.98e-05,
        "meta_mean_motion_ddot": 0,
        "tle_line1": "1 33320U 08041A   25336.30798603  .00001980  00000+0  24704-3 0  9996",
        "tle_line2": "2 33320  97.6535 325.0430 0020681  66.6475 293.6913 14.83340591929210"
      },
      "geometry": {
        "type": "Point",
        "coordinates": [
          -34.812813327442235,
          0.851401696952962
        ]
      }
    },
    {
      "type": "Feature",
      "properties": {
        "norad_id": 33321,
        "name": "HUANJING 1B (HJ-1B)",
        "group": "resource",
        "lat": -62.44452061714284,
        "lon": 134.11947857749536,
        "alt_km": 646.7739584162673,
        "timestamp": "2025-12-02T13:52:16.932337+00:00",
        "meta_object_name": "HUANJING 1B (HJ-1B)",
        "meta_object_id": "2008-041B",
        "meta_epoch": "2025-12-02T06:18:06.792768",
        "meta_mean_motion": 14.82777192,
        "meta_eccentricity": 0.00381363,
        "meta_inclination": 97.6395,
        "meta_ra_of_asc_node": 328.7237,
        "meta_arg_of_pericenter": 108.8738,
        "meta_mean_anomaly": 251.6618,
        "meta_ephemeris_type": 0,
        "meta_classification_type": "U",
        "meta_norad_cat_id": 33321,
        "meta_element_set_no": 999,
        "meta_rev_at_epoch": 92922,
        "meta_bstar": 0.00019698886,
        "meta_mean_motion_dot": 1.561e-05,
        "meta_mean_motion_ddot": 0,
        "tle_line1": "1 33321U 08041B   25336.26257862  .00001561  00000+0  19699-3 0  9991",
        "tle_line2": "2 33321  97.6395 328.7237 0038136 108.8738 251.6618 14.82777192929222"
      },
      "geometry": {
        "type": "Point",
        "coordinates": [
          134.11947857749536,
          -62.44452061714284
        ]
      }
    },
    {
      "type": "Feature",
      "properties": {
        "norad_id": 33331,
        "name": "GEOEYE 1",
        "group": "resource",
        "lat": 13.393435892764538,
        "lon": -130.06513132355215,
        "alt_km": 680.7799793180448,
        "timestamp": "2025-12-02T13:52:16.932348+00:00",
        "meta_object_name": "GEOEYE 1",
        "meta_object_id": "2008-042A",
        "meta_epoch": "2025-12-02T06:33:23.103648",
        "meta_mean_motion": 14.64788997,
        "meta_eccentricity": 0.00030362,
        "meta_inclination": 98.1265,
        "meta_ra_of_asc_node": 47.6841,
        "meta_arg_of_pericenter": 321.8904,
        "meta_mean_anomaly": 38.2084,
        "meta_ephemeris_type": 0,
        "meta_classification_type": "U",
        "meta_norad_cat_id": 33331,
        "meta_element_set_no": 999,
        "meta_rev_at_epoch": 92132,
        "meta_bstar": 0.00017124169,
        "meta_mean_motion_dot": 8.66e-06,
        "meta_mean_motion_ddot": 0,
        "tle_line1": "1 33331U 08042A   25336.27318407  .00000866  00000+0  17124-3 0  9995",
        "tle_line2": "2 33331  98.1265  47.6841 0003036 321.8904  38.2084 14.64788997921320"
      },
      "geometry": {
        "type": "Point",
        "coordinates": [
          -130.06513132355215,
          13.393435892764538
        ]
      }
    },
    {
      "type": "Feature",
      "properties": {
        "norad_id": 33396,
        "name": "THEOS",
        "group": "resource",
        "lat": -35.67036191499196,
        "lon": -151.26064993010766,
        "alt_km": 831.6299054001202,
        "timestamp": "2025-12-02T13:52:16.932359+00:00",
        "meta_object_name": "THEOS",
        "meta_object_id": "2008-049A",
        "meta_epoch": "2025-12-02T07:47:03.489216",
        "meta_mean_motion": 14.2009278,
        "meta_eccentricity": 0.00010884,
        "meta_inclination": 98.5882,
        "meta_ra_of_asc_node": 34.7205,
        "meta_arg_of_pericenter": 100.5129,
        "meta_mean_anomaly": 259.617,
        "meta_ephemeris_type": 0,
        "meta_classification_type": "U",
        "meta_norad_cat_id": 33396,
        "meta_element_set_no": 999,
        "meta_rev_at_epoch": 89002,
        "meta_bstar": 6.7756481e-05,
        "meta_mean_motion_dot": 1.02e-06,
        "meta_mean_motion_ddot": 0,
        "tle_line1": "1 33396U 08049A   25336.32434594  .00000102  00000+0  67756-4 0  9995",
        "tle_line2": "2 33396  98.5882  34.7205 0001088 100.5129 259.6170 14.20092780890024"
      },
      "geometry": {
        "type": "Point",
        "coordinates": [
          -151.26064993010766,
          -35.67036191499196
        ]
      }
    }
  ]
}